ONEWEB-0414             
1 50491U 21132Y   25267.83029112 -.00000008  00000+0 -53888-4 0  9991
2 50491  87.9211  28.1240 0001646  92.9273 267.2048 13.18684996186655
ONEWEB-0417             
1 50492U 21132Z   25267.83853601 -.00000003  00000+0 -41102-4 0  9991
2 50492  87.9213  28.1557 0001955  96.9107 263.2248 13.18684050186639
ONEWEB-0418             
1 50493U 21132AA  25267.84830772  .00000006  00000+0 -16993-4 0  9999
2 50493  87.9213  28.1392 0002195  94.7505 265.3878 13.18685228186698
ONEWEB-0419             
1 50494U 21132AB  25267.86658889  .00000042  00000+0  73960-4 0  9995
2 50494  87.9208  28.1362 0001997 103.9238 256.2116 13.18685627186614
ONEWEB-0420             
1 50495U 21132AC  25267.75606181  .00000058  00000+0  11446-3 0  9999
2 50495  87.9211  28.1687 0001397 105.7360 254.3927 13.18684461186590
ONEWEB-0421             
1 50496U 21132AD  25267.59771824  .00000117  00000+0  26278-3 0  9994
2 50496  87.9212  28.1938 0001596  89.5872 270.5443 13.18686104186611
ONEWEB-0424             
1 50497U 21132AE  25267.86163261  .00000038  00000+0  63594-4 0  9990
2 50497  87.9213  28.1363 0002039 108.6026 251.5328 13.18686149186678
ONEWEB-0426             
1 50498U 21132AF  25267.59441964  .00000084  00000+0  17958-3 0  9993
2 50498  87.9211  28.1813 0002012  79.3538 280.7821 13.18684612186585
